GLOBALSTAR M094         
1 39074U 13005C   25293.04996249 -.00000061  00000+0  23948-3 0  9992
2 39074  51.9940 161.9470 0000848  94.9892 265.1071 12.62264539588140
GLOBALSTAR M096         
1 39075U 13005D   25293.14233965 -.00000078  00000+0  14238-3 0  9993
2 39075  52.0066 210.2770 0000755  86.2497 273.8456 12.62267847587074
GLOBALSTAR M078         
1 39076U 13005E   25293.03723372 -.00000087  00000+0  91739-4 0  9990
2 39076  51.9871 294.9415 0001263  90.8333 269.2678 12.62261375585687
GLOBALSTAR M095         
1 39077U 13005F   25293.14242775 -.00000093  00000+0  59139-4 0  9991
2 39077  52.0081 291.8830 0000740 108.6188 251.4759 12.62260989585554
GLOBALSTAR M087         
1 52888U 22064A   25292.68044806 -.00000105  00000+0 -72188-5 0  9999
2 52888  51.9993  74.6604 0000945 113.9639 246.1327 12.62289414160760
